NORAD_CAT_ID,OBJECT_NAME,OBJECT_TYPE,EPOCH,MEAN_MOTION,ECCENTRICITY,INCLINATION,RA_OF_ASC_NODE,ARG_OF_PERICENTER,MEAN_ANOMALY,BSTAR,MEAN_MOTION_DOT,MEAN_MOTION_DDOT,TLE_LINE0,TLE_LINE1,TLE_LINE2,SEMIMAJOR_AXIS,PERIOD,APOGEE,PERIGEE,DECAYED
55788.0,STARLINK-5804,PAYLOAD,2024-08-06 05:05:20,14.98324927,0.0003092,69.9981,228.1512,268.7903,91.2902,-6.4137e-05,-8.58e-06,0.0,0 STARLINK-5804,1 55788U 23028AZ  24219.21203733 -.00000858  00000-0 -64137-4 0  9995,2 55788  69.9981 228.1512 0003092 268.7903  91.2902 14.98324927 80063,6950.209,96.107,574.223,569.925,0.0
55788.0,STARLINK-5804,PAYLOAD,2024-08-06 11:29:52,14.98325158,0.0003114,69.9981,227.478,267.9452,92.135,-5.9465e-05,-8.02e-06,0.0,0 STARLINK-5804,1 55788U 23028AZ  24219.47907759 -.00000802  00000-0 -59465-4 0  9999,2 55788  69.9981 227.4780 0003114 267.9452  92.1350 14.98325158 80117,6950.208,96.107,574.237,569.909,0.0
55788.0,STARLINK-5804,PAYLOAD,2024-08-06 17:54:24,14.98327207,0.0003123,69.9982,226.8047,267.7278,92.3523,-2.525e-05,-3.94e-06,0.0,0 STARLINK-5804,1 55788U 23028AZ  24219.74611578 -.00000394  00000-0 -25250-4 0  9991,2 55788  69.9982 226.8047 0003123 267.7278  92.3523 14.98327207 80156,6950.202,96.107,574.237,569.896,0.0
55788.0,STARLINK-5804,PAYLOAD,2024-08-07 03:31:12,14.98330426,0.0003126,69.9982,225.7946,267.1086,92.9715,-1.5076e-05,-2.73e-06,0.0,0 STARLINK-5804,1 55788U 23028AZ  24220.14667354 -.00000273  00000-0 -15076-4 0  9991,2 55788  69.9982 225.7946 0003126 267.1086  92.9715 14.98330426 80208,6950.192,96.107,574.229,569.884,0.0
55788.0,STARLINK-5804,PAYLOAD,2024-08-08 09:57:45,14.98331432,0.0003205,69.9982,222.5962,267.1948,92.8845,0.00010449,1.154e-05,0.0,0 STARLINK-5804,1 55788U 23028AZ  24221.41510936  .00001154  00000-0  10449-3 0  9990,2 55788  69.9982 222.5962 0003205 267.1948  92.8845 14.98331432 80409,6950.188,96.107,574.281,569.826,0.0
55788.0,STARLINK-5804,PAYLOAD,2024-08-09 09:59:46,14.98332466,0.0003141,69.9984,220.0717,266.67,93.41,3.184e-05,2.87e-06,0.0,0 STARLINK-5804,1 55788U 23028AZ  24222.41650976  .00000287  00000-0  31840-4 0  9995,2 55788  69.9984 220.0717 0003141 266.6700  93.4100 14.98332466 80545,6950.185,96.107,574.233,569.867,0.0
55788.0,STARLINK-5804,PAYLOAD,2024-08-10 10:01:47,14.98334889,0.0002986,69.9988,217.5476,261.2584,98.8237,1.6583e-05,1.05e-06,0.0,0 STARLINK-5804,1 55788U 23028AZ  24223.41790647  .00000105  00000-0  16583-4 0  9992,2 55788  69.9988 217.5476 0002986 261.2584  98.8237 14.98334889 80696,6950.178,96.107,574.118,569.967,0.0
55788.0,STARLINK-5804,PAYLOAD,2024-08-11 16:28:20,14.98331396,0.0002821,69.9991,214.3486,266.5922,93.4914,2.3699e-06,-6.5e-07,0.0,0 STARLINK-5804,1 55788U 23028AZ  24224.68634841 -.00000065  00000-0  23699-5 0  9998,2 55788  69.9991 214.3486 0002821 266.5922  93.4914 14.98331396 80882,6950.189,96.107,574.014,570.093,0.0
55788.0,STARLINK-5804,PAYLOAD,2024-08-12 08:29:40,14.9833379,0.0002873,69.999,212.6654,265.3252,94.7579,4.6174e-05,4.58e-06,0.0,0 STARLINK-5804,1 55788U 23028AZ  24225.35394438  .00000458  00000-0  46174-4 0  9995,2 55788  69.9990 212.6654 0002873 265.3252  94.7579 14.98333790 80992,6950.181,96.107,574.043,570.049,0.0
55788.0,STARLINK-5804,PAYLOAD,2024-08-12 16:30:20,14.98336726,0.0003123,69.9985,211.8236,266.0756,94.0046,6.2025e-06,-1.9e-07,0.0,0 STARLINK-5804,1 55788U 23028AZ  24225.68774212 -.00000019  00000-0  62025-5 0  9991,2 55788  69.9985 211.8236 0003123 266.0756  94.0046 14.98336726 81039,6950.172,96.107,574.208,569.867,0.0
55788.0,STARLINK-5804,PAYLOAD,2024-08-13 08:31:41,14.98334906,0.0002864,69.999,210.1414,264.6282,95.455,1.9776e-05,1.43e-06,0.0,0 STARLINK-5804,1 55788U 23028AZ  24226.35534174  .00000143  00000-0  19776-4 0  9998,2 55788  69.9990 210.1414 0002864 264.6282  95.4550 14.98334906 81149,6950.178,96.107,574.033,570.052,0.0
55788.0,STARLINK-5804,PAYLOAD,2024-08-13 16:32:22,14.98324767,0.0002584,70.0008,209.2983,275.9768,84.1097,-4.2503e-05,-6e-06,0.0,0 STARLINK-5804,1 55788U 23028AZ  24226.68915151 -.00000600  00000-0 -42503-4 0  9996,2 55788  70.0008 209.2983 0002584 275.9768  84.1097 14.98324767 81184,6950.209,96.107,573.87,570.278,0.0
55788.0,STARLINK-5804,PAYLOAD,2024-08-13 22:56:55,14.98319503,0.0002706,69.9991,208.6237,273.7097,86.3752,-5.993e-05,-8.08e-06,0.0,0 STARLINK-5804,1 55788U 23028AZ  24226.95619593 -.00000808  00000-0 -59930-4 0  9999,2 55788  69.9991 208.6237 0002706 273.7097  86.3752 14.98319503 81234,6950.225,96.108,573.971,570.21,0.0
55788.0,STARLINK-5804,PAYLOAD,2024-08-14 05:21:28,14.98315198,0.0003135,69.9986,207.9518,272.5359,87.5441,-0.00020418,-2.527e-05,0.0,0 STARLINK-5804,1 55788U 23028AZ  24227.22324416 -.00002527  00000-0 -20418-3 0  9995,2 55788  69.9986 207.9518 0003135 272.5359  87.5441 14.98315198 81264,6950.239,96.108,574.283,569.925,0.0
55788.0,STARLINK-5804,PAYLOAD,2024-08-14 08:33:44,14.98311012,0.0002831,69.9989,207.6143,267.6636,92.4199,-0.00015439,-1.934e-05,0.0,0 STARLINK-5804,1 55788U 23028AZ  24227.35676701 -.00001934  00000-0 -15439-3 0  9994,2 55788  69.9989 207.6143 0002831 267.6636  92.4199 14.98311012 81292,6950.252,96.108,574.084,570.149,0.0
55788.0,STARLINK-5804,PAYLOAD,2024-08-14 22:58:57,14.98315934,0.0003219,69.9985,206.1006,273.1283,86.9507,-8.1416e-05,-1.064e-05,0.0,0 STARLINK-5804,1 55788U 23028AZ  24227.95760643 -.00001064  00000-0 -81416-4 0  9992,2 55788  69.9985 206.1006 0003219 273.1283  86.9507 14.98315934 81389,6950.236,96.108,574.339,569.864,0.0
55788.0,STARLINK-5804,PAYLOAD,2024-08-15 05:23:29,14.98320273,0.0003141,69.9986,205.4269,272.3974,87.6825,-8.7392e-05,-1.135e-05,0.0,0 STARLINK-5804,1 55788U 23028AZ  24228.22464612 -.00001135  00000-0 -87392-4 0  9998,2 55788  69.9986 205.4269 0003141 272.3974  87.6825 14.98320273 81412,6950.223,96.108,574.271,569.905,0.0
55788.0,STARLINK-5804,PAYLOAD,2024-08-15 08:35:45,14.98321654,0.000311,69.9987,205.0901,272.2908,87.7895,-6.2854e-05,-8.43e-06,0.0,0 STARLINK-5804,1 55788U 23028AZ  24228.35816555 -.00000843  00000-0 -62854-4 0  9990,2 55788  69.9987 205.0901 0003110 272.2908  87.7895 14.98321654 81449,6950.219,96.108,574.245,569.922,0.0
55788.0,STARLINK-5804,PAYLOAD,2024-08-15 23:00:57,14.98319501,0.0003189,69.9986,203.5752,273.9682,86.1112,0.0002401,2.772e-05,0.0,0 STARLINK-5804,1 55788U 23028AZ  24228.95900186  .00002772  00000-0  24010-3 0  9992,2 55788  69.9986 203.5752 0003189 273.9682  86.1112 14.98319501 81531,6950.225,96.108,574.307,569.874,0.0
55788.0,STARLINK-5804,PAYLOAD,2024-08-16 05:25:29,14.98324769,0.0003205,69.9986,202.9021,273.9894,86.0899,0.00025322,2.929e-05,0.0,0 STARLINK-5804,1 55788U 23028AZ  24229.22604006  .00002929  00000-0  25322-3 0  9996,2 55788  69.9986 202.9021 0003205 273.9894  86.0899 14.98324769 81563,6950.209,96.107,574.302,569.847,0.0
55788.0,STARLINK-5804,PAYLOAD,2024-08-16 08:37:45,14.98326898,0.0003178,69.9987,202.5653,273.9659,86.1137,0.00026727,3.097e-05,0.0,0 STARLINK-5804,1 55788U 23028AZ  24229.35955881  .00003097  00000-0  26727-3 0  9997,2 55788  69.9987 202.5653 0003178 273.9659  86.1137 14.98326898 81593,6950.202,96.107,574.276,569.859,0.0
55788.0,STARLINK-5804,PAYLOAD,2024-08-16 21:26:49,14.98336054,0.0003209,69.9986,201.2188,273.2644,86.8148,0.00021702,2.498e-05,0.0,0 STARLINK-5804,1 55788U 23028AZ  24229.89363416  .00002498  00000-0  21702-3 0  9995,2 55788  69.9986 201.2188 0003209 273.2644  86.8148 14.98336054 81665,6950.174,96.107,574.269,569.809,0.0
55788.0,STARLINK-5804,PAYLOAD,2024-08-17 07:03:37,14.98342378,0.0003187,69.9987,200.2088,273.6822,86.3973,0.00024363,2.816e-05,0.0,0 STARLINK-5804,1 55788U 23028AZ  24230.29418744  .00002816  00000-0  24363-3 0  9996,2 55788  69.9987 200.2088 0003187 273.6822  86.3973 14.98342378 81736,6950.155,96.106,574.235,569.805,0.0
55788.0,STARLINK-5804,PAYLOAD,2024-08-17 21:28:50,14.9833777,0.0002951,69.9993,198.6947,272.6965,87.3856,-1.2745e-05,-2.45e-06,0.0,0 STARLINK-5804,1 55788U 23028AZ  24230.89503382 -.00000245  00000-0 -12745-4 0  9993,2 55788  69.9993 198.6947 0002951 272.6965  87.3856 14.98337770 81823,6950.169,96.107,574.085,569.983,0.0
55788.0,STARLINK-5804,PAYLOAD,2024-08-18 03:53:23,14.98334279,0.0003025,69.9991,198.0212,272.2773,87.8039,-5.9366e-05,-8.01e-06,0.0,0 STARLINK-5804,1 55788U 23028AZ  24231.16207559 -.00000801  00000-0 -59366-4 0  9999,2 55788  69.9991 198.0212 0003025 272.2773  87.8039 14.98334279 81858,6950.18,96.107,574.147,569.942,0.0
55788.0,STARLINK-5804,PAYLOAD,2024-08-18 05:29:31,14.98334915,0.0003026,69.9991,197.8523,271.9048,88.1764,-2.4079e-05,-3.8e-06,0.0,0 STARLINK-5804,1 55788U 23028AZ  24231.22883366 -.00000380  00000-0 -24079-4 0  9997,2 55788  69.9991 197.8523 0003026 271.9048  88.1764 14.98334915 81870,6950.178,96.107,574.146,569.94,0.0
55788.0,STARLINK-5804,PAYLOAD,2024-08-18 08:41:47,14.98327114,0.0003225,69.9992,197.5161,271.9096,88.1694,0.00017849,2.037e-05,0.0,0 STARLINK-5804,1 55788U 23028AZ  24231.36235331  .00002037  00000-0  17849-3 0  9990,2 55788  69.9992 197.5161 0003225 271.9096  88.1694 14.98327114 81897,6950.202,96.107,574.308,569.825,0.0
55788.0,STARLINK-5804,PAYLOAD,2024-08-19 03:55:22,14.98349686,0.0003091,69.999,195.4961,271.6538,88.4267,2.8189e-05,2.43e-06,0.0,0 STARLINK-5804,1 55788U 23028AZ  24232.16345388  .00000243  00000-0  28189-4 0  9990,2 55788  69.9990 195.4961 0003091 271.6538  88.4267 14.98349686 82000,6950.132,96.106,574.145,569.849,0.0
55788.0,STARLINK-5804,PAYLOAD,2024-08-19 07:07:38,14.98353207,0.0003108,69.9989,195.1587,271.8163,88.264,5.2588e-05,5.35e-06,0.0,0 STARLINK-5804,1 55788U 23028AZ  24232.29696917  .00000535  00000-0  52588-4 0  9995,2 55788  69.9989 195.1587 0003108 271.8163  88.2640 14.98353207 82034,6950.121,96.106,574.146,569.826,0.0
55788.0,STARLINK-5804,PAYLOAD,2024-08-20 03:57:24,14.98321001,0.0003191,69.9986,192.9701,266.8673,93.2121,-0.0001086,-1.388e-05,0.0,0 STARLINK-5804,1 55788U 23028AZ  24233.16487252 -.00001388  00000-0 -10860-3 0  9997,2 55788  69.9986 192.9701 0003191 266.8673  93.2121 14.98321001 82156,6950.221,96.108,574.304,569.868,0.0
